IRIDIUM 112             
1 41925U 17003J   24261.79811334  .00000867  00000+0  30233-3 0  9997
2 41925  86.4027 354.6680 0002129  84.5391 275.6048 14.34224579401914
IRIDIUM 111             
1 41926U 17003K   24261.78543803  .00000439  00000+0  14964-3 0  9998
2 41926  86.4029 354.7298 0001923  89.3632 270.7784 14.34214722401894
IRIDIUM 113             
1 42803U 17039A   24261.90493662  .00000690  00000+0  23935-3 0  9990
2 42803  86.3972 228.4213 0002134  81.5626 278.5811 14.34214810379845
IRIDIUM 123             
1 42804U 17039B   24261.94642293 -.00000068  00000+0 -31430-4 0  9992
2 42804  86.3913 259.8981 0002004  92.1920 267.9505 14.34216498378612
IRIDIUM 120             
1 42805U 17039C   24261.96836327  .00000006  00000+0 -49453-5 0  9994
2 42805  86.3962 228.2600 0002310  89.4157 270.7303 14.34217334379840
IRIDIUM 115             
1 42806U 17039D   24262.45350478  .00001237  00000+0  36165-3 0  9998
2 42806  86.4500 228.0954 0002053  77.1384 283.0046 14.43278142382423
IRIDIUM 118             
1 42807U 17039E   24261.69906126  .00000078  00000+0  20718-4 0  9991
2 42807  86.3912 260.0028 0002364  91.8066 268.3400 14.34218093378573
IRIDIUM 117             
1 42808U 17039F   24261.92739612  .00000068  00000+0  17189-4 0  9999
2 42808  86.3907 259.8708 0002153  87.8300 272.3142 14.34216845378640
